[{"OBJECT_NAME":"STARLINK-3516","OBJECT_ID":"2022-016AB","EPOCH":"2026-03-09T21:55:18.692256","MEAN_MOTION":15.08832918,"ECCENTRICITY":0.0001344,"INCLINATION":53.219,"RA_OF_ASC_NODE":318.1159,"ARG_OF_PERICENTER":97.2091,"MEAN_ANOMALY":262.9054,"EPHEMERIS_TYPE":0,"CLASSIFICATION_TYPE":"U","NORAD_CAT_ID":51739,"ELEMENT_SET_NO":999,"REV_AT_EPOCH":22359,"BSTAR":-3.9048458e-5,"MEAN_MOTION_DOT":-9.09e-6,"MEAN_MOTION_DDOT":0},{"OBJECT_NAME":"FENGYUN 1C DEB","OBJECT_ID":"1999-025ARC","EPOCH":"2026-03-09T09:52:34.584960","MEAN_MOTION":14.8862073,"ECCENTRICITY":0.01277475,"INCLINATION":99.058,"RA_OF_ASC_NODE":51.7347,"ARG_OF_PERICENTER":19.4756,"MEAN_ANOMALY":341.1273,"EPHEMERIS_TYPE":0,"CLASSIFICATION_TYPE":"U","NORAD_CAT_ID":30694,"ELEMENT_SET_NO":999,"REV_AT_EPOCH":1384,"BSTAR":0.0015651053,"MEAN_MOTION_DOT":0.00016942,"MEAN_MOTION_DDOT":0}]
